[
    {
        "Altitude(m)": 711910.8328016028,
        "Argument of Periapsis(deg)": 0.0034170363559881197,
        "Eccentricity": 0.0,
        "Inclination(deg)": 45.0,
        "Latitude(deg)": -30.537175404131915,
        "Longitude(deg)": 48.86237260024557,
        "Mean Anomaly(deg)": -45.63093500575573,
        "RAAN(deg)": 184.99677441756256,
        "Satellite Name": "Constellation 1 833",
        "Satellite Number": 833,
        "Semi-Major Axis(m)": 7083131.272910544,
        "Time(s)": 57
    },
    {
        "Altitude(m)": 711897.2148641471,
        "Argument of Periapsis(deg)": 0.003476984362233526,
        "Eccentricity": 0.0,
        "Inclination(deg)": 45.0,
        "Latitude(deg)": -30.502318008672827,
        "Longitude(deg)": 48.91581166544086,
        "Mean Anomaly(deg)": -45.57023386550587,
        "RAAN(deg)": 184.99671782839695,
        "Satellite Name": "Constellation 1 833",
        "Satellite Number": 833,
        "Semi-Major Axis(m)": 7083131.272910544,
        "Time(s)": 58
    },
    {
        "Altitude(m)": 711883.5921693139,
        "Argument of Periapsis(deg)": 0.003536932368478932,
        "Eccentricity": 0.0,
        "Inclination(deg)": 45.0,
        "Latitude(deg)": -30.467434971798312,
        "Longitude(deg)": 48.96920966884483,
        "Mean Anomaly(deg)": -45.50953272525591,
        "RAAN(deg)": 184.9966612392314,
        "Satellite Name": "Constellation 1 833",
        "Satellite Number": 833,
        "Semi-Major Axis(m)": 7083131.272910544,
        "Time(s)": 59
    },
    {
        "Altitude(m)": 711869.9647649938,
        "Argument of Periapsis(deg)": 0.003596880374724337,
        "Eccentricity": 0.0,
        "Inclination(deg)": 45.0,
        "Latitude(deg)": -30.432526346322252,
        "Longitude(deg)": 49.02256700291326,
        "Mean Anomaly(deg)": -45.44883158500604,
        "RAAN(deg)": 184.99660465006582,
        "Satellite Name": "Constellation 1 833",
        "Satellite Number": 833,
        "Semi-Major Axis(m)": 7083131.272910544,
        "Time(s)": 60
    },
    {
        "Altitude(m)": 711856.3326991054,
        "Argument of Periapsis(deg)": 0.0036568283809697427,
        "Eccentricity": 0.0,
        "Inclination(deg)": 45.0,
        "Latitude(deg)": -30.39759218498701,
        "Longitude(deg)": 49.07588355587877,
        "Mean Anomaly(deg)": -45.38813044475608,
        "RAAN(deg)": 184.99654806090027,
        "Satellite Name": "Constellation 1 833",
        "Satellite Number": 833,
        "Semi-Major Axis(m)": 7083131.272910544,
        "Time(s)": 61
    },
    {
        "Altitude(m)": 711842.6960195595,
        "Argument of Periapsis(deg)": 0.003716776387215149,
        "Eccentricity": 0.0,
        "Inclination(deg)": 45.0,
        "Latitude(deg)": -30.36263254046301,
        "Longitude(deg)": 49.129159384137154,
        "Mean Anomaly(deg)": -45.327429304506246,
        "RAAN(deg)": 184.99649147173471,
        "Satellite Name": "Constellation 1 833",
        "Satellite Number": 833,
        "Semi-Major Axis(m)": 7083131.272910544,
        "Time(s)": 62
    },
    {
        "Altitude(m)": 711829.0547742823,
        "Argument of Periapsis(deg)": 0.003776724393460554,
        "Eccentricity": 0.0,
        "Inclination(deg)": 45.0,
        "Latitude(deg)": -30.327647465348548,
        "Longitude(deg)": 49.182394544150576,
        "Mean Anomaly(deg)": -45.26672816425626,
        "RAAN(deg)": 184.9964348825691,
        "Satellite Name": "Constellation 1 833",
        "Satellite Number": 833,
        "Semi-Major Axis(m)": 7083131.272910544,
        "Time(s)": 63
    },
    {
        "Altitude(m)": 711815.409011199,
        "Argument of Periapsis(deg)": 0.003836672399705959,
        "Eccentricity": 0.0,
        "Inclination(deg)": 45.0,
        "Latitude(deg)": -30.29263701217024,
        "Longitude(deg)": 49.23558909244582,
        "Mean Anomaly(deg)": -45.206027024006396,
        "RAAN(deg)": 184.99637829340355,
        "Satellite Name": "Constellation 1 833",
        "Satellite Number": 833,
        "Semi-Major Axis(m)": 7083131.272910544,
        "Time(s)": 64
    },
    {
        "Altitude(m)": 711801.7587782497,
        "Argument of Periapsis(deg)": 0.003896620405951365,
        "Eccentricity": 0.0,
        "Inclination(deg)": 45.0,
        "Latitude(deg)": -30.257601233382626,
        "Longitude(deg)": 49.288743085614634,
        "Mean Anomaly(deg)": -45.14532588375656,
        "RAAN(deg)": 184.996321704238,
        "Satellite Name": "Constellation 1 833",
        "Satellite Number": 833,
        "Semi-Major Axis(m)": 7083131.272910544,
        "Time(s)": 65
    },
    {
        "Altitude(m)": 711788.1041233832,
        "Argument of Periapsis(deg)": 0.003956568412196771,
        "Eccentricity": 0.0,
        "Inclination(deg)": 45.0,
        "Latitude(deg)": -30.2225401813683,
        "Longitude(deg)": 49.34185658031254,
        "Mean Anomaly(deg)": -45.084624743506566,
        "RAAN(deg)": 184.99626511507242,
        "Satellite Name": "Constellation 1 833",
        "Satellite Number": 833,
        "Semi-Major Axis(m)": 7083131.272910544,
        "Time(s)": 66
    },
    {
        "Altitude(m)": 711774.4450945443,
        "Argument of Periapsis(deg)": 0.004016516418442176,
        "Eccentricity": 0.0,
        "Inclination(deg)": 45.0,
        "Latitude(deg)": -30.187453908438577,
        "Longitude(deg)": 49.39492946516072,
        "Mean Anomaly(deg)": -45.02392360325673,
        "RAAN(deg)": 184.99620852590687,
        "Satellite Name": "Constellation 1 833",
        "Satellite Number": 833,
        "Semi-Major Axis(m)": 7083131.272910544,
        "Time(s)": 67
    },
    {
        "Altitude(m)": 711760.7817396967,
        "Argument of Periapsis(deg)": 0.004076464424687581,
        "Eccentricity": 0.0,
        "Inclination(deg)": 45.0,
        "Latitude(deg)": -30.152342466831957,
        "Longitude(deg)": 49.44796213313416,
        "Mean Anomaly(deg)": -44.96322246300685,
        "RAAN(deg)": 184.99615193674126,
        "Satellite Name": "Constellation 1 833",
        "Satellite Number": 833,
        "Semi-Major Axis(m)": 7083131.272910544,
        "Time(s)": 68
    },
    {
        "Altitude(m)": 711747.1141068046,
        "Argument of Periapsis(deg)": 0.004136412430932987,
        "Eccentricity": 0.0,
        "Inclination(deg)": 45.0,
        "Latitude(deg)": -30.117205908715924,
        "Longitude(deg)": 49.50095447297852,
        "Mean Anomaly(deg)": -44.90252132275691,
        "RAAN(deg)": 184.9960953475757,
        "Satellite Name": "Constellation 1 833",
        "Satellite Number": 833,
        "Semi-Major Axis(m)": 7083131.272910544,
        "Time(s)": 69
    },
    {
        "Altitude(m)": 711733.4422438313,
        "Argument of Periapsis(deg)": 0.004196360437178394,
        "Eccentricity": 0.0,
        "Inclination(deg)": 45.0,
        "Latitude(deg)": -30.082044286186044,
        "Longitude(deg)": 49.5539065415974,
        "Mean Anomaly(deg)": -44.84182018250695,
        "RAAN(deg)": 184.99603875841012,
        "Satellite Name": "Constellation 1 833",
        "Satellite Number": 833,
        "Semi-Major Axis(m)": 7083131.272910544,
        "Time(s)": 70
    },
    {
        "Altitude(m)": 711719.7661987625,
        "Argument of Periapsis(deg)": 0.004256308443423799,
        "Eccentricity": 0.0,
        "Inclination(deg)": 45.0,
        "Latitude(deg)": -30.046857651266137,
        "Longitude(deg)": 49.60681839595468,
        "Mean Anomaly(deg)": -44.78111904225709,
        "RAAN(deg)": 184.99598216924457,
        "Satellite Name": "Constellation 1 833",
        "Satellite Number": 833,
        "Semi-Major Axis(m)": 7083131.272910544,
        "Time(s)": 71
    },
    {
        "Altitude(m)": 711706.0860195745,
        "Argument of Periapsis(deg)": 0.004316256449669204,
        "Eccentricity": 0.0,
        "Inclination(deg)": 45.0,
        "Latitude(deg)": -30.01164605590821,
        "Longitude(deg)": 49.65969009307413,
        "Mean Anomaly(deg)": -44.72041790200723,
        "RAAN(deg)": 184.99592558007902,
        "Satellite Name": "Constellation 1 833",
        "Satellite Number": 833,
        "Semi-Major Axis(m)": 7083131.272910544,
        "Time(s)": 72
    },
    {
        "Altitude(m)": 711692.4017542534,
        "Argument of Periapsis(deg)": 0.00437620445591461,
        "Eccentricity": 0.0,
        "Inclination(deg)": 45.0,
        "Latitude(deg)": -29.976409551992585,
        "Longitude(deg)": 49.71252169003847,
        "Mean Anomaly(deg)": -44.65971676175727,
        "RAAN(deg)": 184.9958689909134,
        "Satellite Name": "Constellation 1 833",
        "Satellite Number": 833,
        "Semi-Major Axis(m)": 7083131.272910544,
        "Time(s)": 73
    },
    {
        "Altitude(m)": 711678.7134508004,
        "Argument of Periapsis(deg)": 0.004436152462160016,
        "Eccentricity": 0.0,
        "Inclination(deg)": 45.0,
        "Latitude(deg)": -29.941148191328402,
        "Longitude(deg)": 49.76531307589152,
        "Mean Anomaly(deg)": -44.59901562150751,
        "RAAN(deg)": 184.99581240174786,
        "Satellite Name": "Constellation 1 833",
        "Satellite Number": 833,
        "Semi-Major Axis(m)": 7083131.272910544,
        "Time(s)": 74
    },
    {
        "Altitude(m)": 711665.0211572023,
        "Argument of Periapsis(deg)": 0.0044961004684054215,
        "Eccentricity": 0.0,
        "Inclination(deg)": 45.0,
        "Latitude(deg)": -29.905862025652084,
        "Longitude(deg)": 49.81806464402621,
        "Mean Anomaly(deg)": -44.538314481257544,
        "RAAN(deg)": 184.99575581258227,
        "Satellite Name": "Constellation 1 833",
        "Satellite Number": 833,
        "Semi-Major Axis(m)": 7083131.272910544,
        "Time(s)": 75
    }
]